0 CZ-3A DEB
1 36971U 07003AH  13281.56373605  .00000173  00000-0  24345-2 0  2079
2 36971 025.6003 091.7379 7621355 172.5383 017.9279 01.75585869 31012
0 CZ-3A DEB
1 36971U 07003AH  13282.74263816  .00000156  00000-0  21869-2 0  2082
2 36971 025.6085 091.4347 7621243 173.0521 043.1173 01.75586630 31033
0 CZ-3A DEB
1 36971U 07003AH  13287.82057064  .00000096  00000-0  17992-2 0  2098
2 36971 025.6433 090.1339 7620480 175.2621 012.9214 01.75589324 31127
0 CZ-3A DEB
1 36971U 07003AH  13293.96535997  .00000039  00000-0  19388-2 0  2106
2 36971 025.6837 088.5624 7619644 177.9316 297.1577 01.75591734 31232
0 CZ-3A DEB
1 36971U 07003AH  13295.22576488  .00000022  00000-0  15587-2 0  2117
2 36971 025.6916 088.2408 7619444 178.4795 013.8826 01.75592785 31251
